[
   {
      "name": "STARLINK-1515",
      "line1": "1 46065U 20055AQ  21092.91553787  .00001228  00000-0  10130-3 0  9993",
      "line2": "2 46065  53.0564 265.0739 0001937  97.4073 262.7137 15.06400628 37727",
      "drg": 10.13,
      "inc": 53.0564,
      "ran": 265.0739,
      "ecc": 0.0001937,
      "aop": 97.4073,
      "man": 262.7137,
      "mmo": 15.06400628,
      "sma": 6925.34663
   },
   {
      "name": "STARLINK-1525",
      "line1": "1 46066U 20055AR  21092.85657277  .00000799  00000-0  72586-4 0  9992",
      "line2": "2 46066  53.0583 265.3455 0002178  97.2743 262.8493 15.06393452 37729",
      "drg": 7.2586,
      "inc": 53.0583,
      "ran": 265.3455,
      "ecc": 0.0002178,
      "aop": 97.2743,
      "man": 262.8493,
      "mmo": 15.06393452,
      "sma": 6925.36863
   },
   {
      "name": "STARLINK-1529",
      "line1": "1 46067U 20055AS  21092.86026009 -.00000710  00000-0 -28726-4 0  9999",
      "line2": "2 46067  53.0580 265.3292 0002880  90.8994 269.2325 15.06392915 37732",
      "drg": -2.8726,
      "inc": 53.058,
      "ran": 265.3292,
      "ecc": 0.000288,
      "aop": 90.8994,
      "man": 269.2325,
      "mmo": 15.06392915,
      "sma": 6925.37027
   },
   {
      "name": "STARLINK-1532",
      "line1": "1 46068U 20055AT  21092.87131784 -.00000645  00000-0 -24365-4 0  9990",
      "line2": "2 46068  53.0583 265.2778 0002330  96.0712 264.0542 15.06392523 37739",
      "drg": -2.4365,
      "inc": 53.0583,
      "ran": 265.2778,
      "ecc": 0.000233,
      "aop": 96.0712,
      "man": 264.0542,
      "mmo": 15.06392523,
      "sma": 6925.37147
   },
   {
      "name": "STARLINK-1533",
      "line1": "1 46069U 20055AU  21092.88605471 -.00000822  00000-0 -36264-4 0  9999",
      "line2": "2 46069  53.0573 265.2041 0002352  93.2915 266.8343 15.06401604 37741",
      "drg": -3.6264,
      "inc": 53.0573,
      "ran": 265.2041,
      "ecc": 0.0002352,
      "aop": 93.2915,
      "man": 266.8343,
      "mmo": 15.06401604,
      "sma": 6925.34364
   },
   {
      "name": "STARLINK-1536",
      "line1": "1 46070U 20055AV  21092.83446488  .00000818  00000-0  73851-4 0  9993",
      "line2": "2 46070  53.0571 265.4392 0002287  93.7939 266.3311 15.06399184 37738",
      "drg": 7.3851,
      "inc": 53.0571,
      "ran": 265.4392,
      "ecc": 0.0002287,
      "aop": 93.7939,
      "man": 266.3311,
      "mmo": 15.06399184,
      "sma": 6925.35106
   },
   {
      "name": "STARLINK-1538",
      "line1": "1 46071U 20055AW  21092.85288092  .00001352  00000-0  10963-3 0  9999",
      "line2": "2 46071  53.0570 265.3541 0002216 112.1643 247.9582 15.06406488 37734",
      "drg": 10.963,
      "inc": 53.057,
      "ran": 265.3541,
      "ecc": 0.0002216,
      "aop": 112.1643,
      "man": 247.9582,
      "mmo": 15.06406488,
      "sma": 6925.32867
   },
   {
      "name": "STARLINK-1539",
      "line1": "1 46072U 20055AX  21092.87774050  .00000654  00000-0  62802-4 0  9990",
      "line2": "2 46072  53.0547 265.2729 0002003  99.6826 260.4389 15.06396707 37728",
      "drg": 6.2802,
      "inc": 53.0547,
      "ran": 265.2729,
      "ecc": 0.0002003,
      "aop": 99.6826,
      "man": 260.4389,
      "mmo": 15.06396707,
      "sma": 6925.35865
   },
   {
      "name": "STARLINK-1542",
      "line1": "1 46073U 20055AY  21092.89342126  .00000721  00000-0  67294-4 0  9993",
      "line2": "2 46073  53.0572 265.1790 0002287  92.0010 268.1241 15.06398223 37738",
      "drg": 6.7294,
      "inc": 53.0572,
      "ran": 265.179,
      "ecc": 0.0002287,
      "aop": 92.001,
      "man": 268.1241,
      "mmo": 15.06398223,
      "sma": 6925.35401
   },
   {
      "name": "STARLINK-1549",
      "line1": "1 46074U 20055AZ  21092.87869132  .00000581  00000-0  57968-4 0  9994",
      "line2": "2 46074  53.0598 265.2427 0002284 100.2035 259.9212 15.06386716 37720",
      "drg": 5.7968,
      "inc": 53.0598,
      "ran": 265.2427,
      "ecc": 0.0002284,
      "aop": 100.2035,
      "man": 259.9212,
      "mmo": 15.06386716,
      "sma": 6925.38927
   },
   {
      "name": "STARLINK-1551",
      "line1": "1 46075U 20055BA  21092.83813590  .00001294  00000-0  10574-3 0  9991",
      "line2": "2 46075  53.0571 265.4187 0002162  92.1990 267.9247 15.06407504 37727",
      "drg": 10.574,
      "inc": 53.0571,
      "ran": 265.4187,
      "ecc": 0.0002162,
      "aop": 92.199,
      "man": 267.9247,
      "mmo": 15.06407504,
      "sma": 6925.32556
   },
   {
      "name": "STARLINK-1552",
      "line1": "1 46076U 20055BB  21092.86393513  .00000138  00000-0  28177-4 0  9998",
      "line2": "2 46076  53.0576 265.3154 0002511  99.8151 260.3122 15.06401726 37715",
      "drg": 2.8177,
      "inc": 53.0576,
      "ran": 265.3154,
      "ecc": 0.0002511,
      "aop": 99.8151,
      "man": 260.3122,
      "mmo": 15.06401726,
      "sma": 6925.34327
   },
   {
      "name": "STARLINK-1559",
      "line1": "1 46077U 20055BC  21092.84551158 -.00000965  00000-0 -45884-4 0  9992",
      "line2": "2 46077  53.0571 265.3881 0002156  91.5516 268.5720 15.06395869 37687",
      "drg": -4.5884,
      "inc": 53.0571,
      "ran": 265.3881,
      "ecc": 0.0002156,
      "aop": 91.5516,
      "man": 268.572,
      "mmo": 15.06395869,
      "sma": 6925.36122
   },
   {
      "name": "STARLINK-1563",
      "line1": "1 46078U 20055BD  21092.88975238  .00002488  00000-0  18587-3 0  9995",
      "line2": "2 46078  53.0564 265.1931 0001978  91.7170 268.4046 15.06395265 37706",
      "drg": 18.587,
      "inc": 53.0564,
      "ran": 265.1931,
      "ecc": 0.0001978,
      "aop": 91.717,
      "man": 268.4046,
      "mmo": 15.06395265,
      "sma": 6925.36307
   },
   {
      "name": "STARLINK-1566",
      "line1": "1 46079U 20055BE  21092.88236569 -.00000363  00000-0 -54171-5 0  9996",
      "line2": "2 46079  53.0581 265.2246 0002398  90.0786 270.0478 15.06397888 37732",
      "drg": -0.54171,
      "inc": 53.0581,
      "ran": 265.2246,
      "ecc": 0.0002398,
      "aop": 90.0786,
      "man": 270.0478,
      "mmo": 15.06397888,
      "sma": 6925.35503
   },
   {
      "name": "STARLINK-1568",
      "line1": "1 46080U 20055BF  21092.90817053  .00000653  00000-0  62793-4 0  9992",
      "line2": "2 46080  53.0568 265.1088 0003506  88.8760 271.2630 15.06405042 37714",
      "drg": 6.2793,
      "inc": 53.0568,
      "ran": 265.1088,
      "ecc": 0.0003506,
      "aop": 88.876,
      "man": 271.263,
      "mmo": 15.06405042,
      "sma": 6925.33311
   },
   {
      "name": "STARLINK-1571",
      "line1": "1 46081U 20055BG  21092.87500046 -.00000976  00000-0 -46641-4 0  9994",
      "line2": "2 46081  53.0555 265.2562 0001479 105.6946 254.4206 15.06393796 37725",
      "drg": -4.6641,
      "inc": 53.0555,
      "ran": 265.2562,
      "ecc": 0.0001479,
      "aop": 105.6946,
      "man": 254.4206,
      "mmo": 15.06393796,
      "sma": 6925.36757
   },
   {
      "name": "STARLINK-1578",
      "line1": "1 46082U 20055BH  21092.89711778  .00000777  00000-0  71104-4 0  9992",
      "line2": "2 46082  53.0585 265.1574 0002565  90.3333 269.7950 15.06391128 37731",
      "drg": 7.1104,
      "inc": 53.0585,
      "ran": 265.1574,
      "ecc": 0.0002565,
      "aop": 90.3333,
      "man": 269.795,
      "mmo": 15.06391128,
      "sma": 6925.37575
   },
   {
      "name": "STARLINK-1579",
      "line1": "1 46083U 20055BJ  21092.86761813  .00001039  00000-0  88623-4 0  9991",
      "line2": "2 46083  53.0575 265.2901 0002108 104.7942 255.3281 15.06406378 37726",
      "drg": 8.8623,
      "inc": 53.0575,
      "ran": 265.2901,
      "ecc": 0.0002108,
      "aop": 104.7942,
      "man": 255.3281,
      "mmo": 15.06406378,
      "sma": 6925.32901
   },
   {
      "name": "FALCON 9 DEB (I)",
      "line1": "1 46084U 20055BK  21092.89400684  .00013322  00000-0  15331-3 0  9994",
      "line2": "2 46084  53.0131 208.8944 0013165   3.9763 356.1352 15.62289943 41847",
      "drg": 15.331,
      "inc": 53.0131,
      "ran": 208.8944,
      "ecc": 0.0013165,
      "aop": 3.9763,
      "man": 356.1352,
      "mmo": 15.62289943,
      "sma": 6759.18111
   },
   {
      "name": "FALCON 9 DEB (II)",
      "line1": "1 46085U 20055BL  21092.92317201  .00014907  00000-0  16927-3 0  9993",
      "line2": "2 46085  53.0110 208.3097 0010955   2.4420 357.6645 15.62554399 41848",
      "drg": 16.927,
      "inc": 53.011,
      "ran": 208.3097,
      "ecc": 0.0010955,
      "aop": 2.442,
      "man": 357.6645,
      "mmo": 15.62554399,
      "sma": 6758.41845
   },
   {
      "name": "FALCON 9 DEB (III)",
      "line1": "1 46086U 20055BM  21092.91265678  .00013347  00000-0  14640-3 0  9990",
      "line2": "2 46086  53.0077 206.6899 0013632 347.8739  12.1944 15.63521941 41861",
      "drg": 14.64,
      "inc": 53.0077,
      "ran": 206.6899,
      "ecc": 0.0013632,
      "aop": 347.8739,
      "man": 12.1944,
      "mmo": 15.63521941,
      "sma": 6755.62998
   },
   {
      "name": "FALCON 9 DEB (IV)",
      "line1": "1 46087U 20055BN  21092.86180266  .00014920  00000-0  16063-3 0  9993",
      "line2": "2 46087  53.0065 206.3249 0011773 342.8974  17.1641 15.63914639 41864",
      "drg": 16.063,
      "inc": 53.0065,
      "ran": 206.3249,
      "ecc": 0.0011773,
      "aop": 342.8974,
      "man": 17.1641,
      "mmo": 15.63914639,
      "sma": 6754.49905
   },
   {
      "name": "FALCON 9 DEB (V)",
      "line1": "1 46090U 20055BR  21092.74515648  .00019396  00000-0  20449-3 0  9995",
      "line2": "2 46090  53.0039 207.6782 0012010 357.6301   2.4654 15.64219703 41837",
      "drg": 20.449,
      "inc": 53.0039,
      "ran": 207.6782,
      "ecc": 0.001201,
      "aop": 357.6301,
      "man": 2.4654,
      "mmo": 15.64219703,
      "sma": 6753.62082
   }
]